      2.10          N: GNSS NAV DATA                        RINEX VERSION / TYPE
fic2rin                                 03/31/2021 00:17:21 PGM / RUN BY / DATE
                                                            END OF HEADER
15 21  3 30  2  0  0.0-1.597166992724e-04 2.614797267597e-12 0.000000000000e+00
    4.600000000000e+01-8.359375000000e+01 5.230217859567e-09-1.875450067177e+00
   -4.306435585022e-06 1.308407285251e-02 8.467584848404e-06 5.153587526321e+03
    1.800000000000e+05 2.216547727585e-07-4.640793722772e-01-1.676380634308e-07
    9.291309560223e-01 1.971875000000e+02 9.729762932138e-01-8.317489313958e-09
   -6.532414958446e-10 1.000000000000e+00 2.151000000000e+03 0.000000000000e+00
    2.400000000000e+00 0.000000000000e+00-1.071020960808e-08 4.600000000000e+01
    1.728000000000e+05 4.000000000000e+00
 9 21  3 30  2  0  0.0-3.350484184921e-04-2.842170943040e-12 0.000000000000e+00
    1.010000000000e+02-6.718750000000e+01 4.639836124941e-09-4.525843691213e-01
   -3.570690751076e-06 1.828279579058e-03 1.076050102711e-05 5.153545364380e+03
    1.800000000000e+05 1.862645149231e-09-3.666059379460e-01 2.980232238770e-08
    9.535678965704e-01 1.671562500000e+02 1.829593990048e+00-8.172840431609e-09
   -7.403879829885e-10 1.000000000000e+00 2.151000000000e+03 0.000000000000e+00
    2.400000000000e+00 0.000000000000e+00 1.396983861923e-09 1.010000000000e+02
    1.728000000000e+05 4.000000000000e+00
19 21  3 30  2  0  0.0-1.975288614631e-05 5.002220859751e-12 0.000000000000e+00
    9.400000000000e+01-1.250000000000e+02 4.027667768529e-09 1.554632446922e+00
   -6.562098860741e-06 9.137570392340e-03 1.088529825211e-05 5.153631586075e+03
    1.800000000000e+05 1.341104507446e-07 2.897091105645e+00-1.918524503708e-07
    9.812588218943e-01 1.812812500000e+02 1.799774805650e+00-7.849255524427e-09
   -4.082312901861e-10 1.000000000000e+00 2.151000000000e+03 0.000000000000e+00
    2.400000000000e+00 0.000000000000e+00-1.583248376846e-08 9.400000000000e+01
    1.728000000000e+05 4.000000000000e+00
22 21  3 30  2  0  0.0-6.495821289718e-04 8.412825991400e-12 0.000000000000e+00
    9.100000000000e+01 3.493750000000e+01 5.763454356722e-09-1.931050820109e+00
    1.870095729828e-06 7.061601849273e-03 3.341585397720e-06 5.153563333511e+03
    1.800000000000e+05-1.173466444016e-07-1.494270609546e+00 1.192092895508e-07
    9.337628618741e-01 3.002500000000e+02-1.008735303909e+00-8.852511599784e-09
    1.653640309328e-10 1.000000000000e+00 2.151000000000e+03 0.000000000000e+00
    2.400000000000e+00 0.000000000000e+00-1.816079020500e-08 9.100000000000e+01
    1.728000000000e+05 4.000000000000e+00
13 21  3 30  2  0  0.0 1.137265935540e-04 4.547473508865e-12 0.000000000000e+00
    8.200000000000e+01-6.096875000000e+01 4.153744448700e-09-1.538623232599e+00
   -3.198161721230e-06 4.913348006085e-03 1.207180321217e-05 5.153684978485e+03
    1.800000000000e+05 1.806765794754e-07-2.189475919089e-01-4.284083843231e-08
    9.685214092271e-01 1.520937500000e+02 9.986338282388e-01-7.855684363643e-09
   -7.453881912672e-10 1.000000000000e+00 2.151000000000e+03 0.000000000000e+00
    2.400000000000e+00 0.000000000000e+00-1.117587089539e-08 8.200000000000e+01
    1.728000000000e+05 4.000000000000e+00
32 21  3 30  2  0  0.0 2.184836193919e-05 3.410605131648e-13 0.000000000000e+00
    1.010000000000e+02-6.259375000000e+01 4.609477717535e-09-2.071212290306e-01
   -3.321096301079e-06 4.781484487467e-03 9.888783097267e-06 5.153656953812e+03
    1.800000000000e+05-1.303851604462e-08-3.568262881615e-01 9.685754776001e-08
    9.575741664876e-01 1.871875000000e+02-2.399484885503e+00-8.223199672131e-09
   -7.000291590243e-10 1.000000000000e+00 2.151000000000e+03 0.000000000000e+00
    2.400000000000e+00 0.000000000000e+00 4.656612873077e-10 1.010000000000e+02
    1.728000000000e+05 4.000000000000e+00
21 21  3 30  2  0  0.0 1.070527359843e-04 2.955857780762e-12 0.000000000000e+00
    1.020000000000e+02 3.615625000000e+01 4.600191616446e-09-7.524805784879e-01
    1.661479473114e-06 2.422112424392e-02 1.384876668453e-05 5.153707574844e+03
    1.800000000000e+05-3.837049007416e-07-2.517293208829e+00-1.676380634308e-08
    9.567255715974e-01 1.201875000000e+02-1.163316033468e+00-8.384634967987e-09
    6.900287424668e-10 1.000000000000e+00 2.151000000000e+03 0.000000000000e+00
    3.400000000000e+00 0.000000000000e+00-1.024454832077e-08 1.020000000000e+02
    1.728000000000e+05 4.000000000000e+00
26 21  3 30  2  0  0.0 6.505660712719e-05 5.229594535194e-12 0.000000000000e+00
    1.020000000000e+02 3.621875000000e+01 5.352365804663e-09 8.413905277956e-01
    1.920387148857e-06 5.798628088087e-03 1.309439539909e-06 5.153776067734e+03
    1.800000000000e+05 2.980232238770e-08 1.702210708434e+00 1.136213541031e-07
    9.422330302792e-01 3.435937500000e+02 2.976562916079e-01-8.872155275165e-09
    1.535778257043e-10 1.000000000000e+00 2.151000000000e+03 0.000000000000e+00
    3.400000000000e+00 0.000000000000e+00 6.984919309616e-09 1.020000000000e+02
    1.728000000000e+05 4.000000000000e+00
28 21  3 30  2  0  0.0 5.946476012468e-04-5.684341886081e-12 0.000000000000e+00
    7.600000000000e+01 4.187500000000e+00 4.841273087028e-09-1.979389925650e-01
    7.823109626770e-08 1.776995218825e-02 2.043321728706e-06 5.153659397125e+03
    1.800000000000e+05-3.464519977570e-07 1.838390495978e+00-7.450580596924e-08
    9.731219691332e-01 3.485625000000e+02-1.346368169776e+00-8.871798117431e-09
    1.707213969457e-10 1.000000000000e+00 2.151000000000e+03 0.000000000000e+00
    2.400000000000e+00 0.000000000000e+00-1.117587089539e-08 7.600000000000e+01
    1.728000000000e+05 4.000000000000e+00
20 21  3 30  2  0  0.0 5.236971192062e-04-3.410605131648e-13 0.000000000000e+00
    5.200000000000e+01 4.168750000000e+01 5.642735042564e-09 2.665899922232e+00
    2.199783921242e-06 6.020505330525e-03 3.820285201073e-06 5.151690010071e+03
    1.800000000000e+05-1.788139343262e-07-1.540779765490e+00 1.117587089539e-07
    9.370663005956e-01 2.952812500000e+02 3.014091832360e+00-8.761793535298e-09
    2.575107263554e-10 1.000000000000e+00 2.151000000000e+03 0.000000000000e+00
    2.400000000000e+00 0.000000000000e+00-8.381903171539e-09 5.200000000000e+01
    1.728000000000e+05 4.000000000000e+00
18 21  3 30  2  0  0.0 3.513535484672e-04 4.547473508865e-13 0.000000000000e+00
    1.350000000000e+02 4.321875000000e+01 4.299821961987e-09-2.940766927204e+00
    2.332031726837e-06 1.241951715201e-03 1.187995076180e-05 5.153679353714e+03
    1.800000000000e+05-2.235174179077e-08-2.422553114044e+00-4.284083843231e-08
    9.674937970515e-01 1.572500000000e+02 2.993832889294e+00-7.855684363643e-09
    5.210931341921e-10 1.000000000000e+00 2.151000000000e+03 0.000000000000e+00
    2.400000000000e+00 0.000000000000e+00-8.381903171539e-09 1.350000000000e+02
    1.728000000000e+05 4.000000000000e+00
17 21  3 30  2  0  0.0 4.179710522294e-04 6.366462912410e-12 0.000000000000e+00
    8.200000000000e+01-1.150937500000e+02 4.122314568091e-09-9.708384300832e-01
   -5.869194865227e-06 1.337551313918e-02 1.093558967113e-05 5.153575635910e+03
    1.800000000000e+05-1.899898052216e-07 2.851895060579e+00 1.341104507446e-07
    9.827569977622e-01 1.858750000000e+02-1.571671261525e+00-8.107837723985e-09
   -3.982308736286e-10 1.000000000000e+00 2.151000000000e+03 0.000000000000e+00
    2.400000000000e+00 0.000000000000e+00-1.117587089539e-08 8.200000000000e+01
    1.728000000000e+05 4.000000000000e+00
14 21  3 30  2  0  0.0 9.887851774693e-05-1.477928890381e-12 0.000000000000e+00
    4.200000000000e+01 1.790625000000e+01 5.155929050855e-09 2.487175444315e+00
    8.158385753632e-07 5.094129592180e-04 1.208856701851e-06 5.153741115570e+03
    1.800000000000e+05-3.725290298462e-08 1.789791087571e+00-1.862645149231e-08
    9.574383930607e-01 3.529375000000e+02 2.375053897568e+00-8.771436794122e-09
    1.660783464012e-10 1.000000000000e+00 2.151000000000e+03 0.000000000000e+00
    2.400000000000e+00 0.000000000000e+00-7.916241884232e-09 8.100000000000e+02
    1.728000000000e+05 4.000000000000e+00
11 21  3 30  2  0  0.0 1.514935865998e-05 1.068656274583e-11 0.000000000000e+00
    3.700000000000e+01-4.425000000000e+01 5.218431654339e-09 2.405802797126e+00
   -2.350658178329e-06 1.529272133484e-02 1.428276300430e-05 5.154088636398e+03
    1.800000000000e+05 2.365559339523e-07-2.929440774052e+00 4.470348358154e-08
    9.146632974777e-01 7.475000000000e+01 2.089531835560e+00-8.132838765379e-09
   -7.536028191537e-11 1.000000000000e+00 2.151000000000e+03 0.000000000000e+00
    2.400000000000e+00 6.300000000000e+01-1.257285475731e-08 3.700000000000e+01
    1.728000000000e+05 4.000000000000e+00
23 21  3 30  2  0  0.0 1.159161329269e-04-1.477928890381e-12 0.000000000000e+00
    1.590000000000e+02 2.087500000000e+01 5.110212860878e-09 2.789632559073e+00
    1.149252057076e-06 1.082741771825e-03 3.607943654060e-06 5.153642194748e+03
    1.800000000000e+05-1.490116119385e-08-1.422906389123e+00 1.285225152969e-07
    9.631487591947e-01 3.124375000000e+02 2.533824288455e+00-8.547498894781e-09
    1.253623647028e-10 1.000000000000e+00 2.151000000000e+03 0.000000000000e+00
    2.400000000000e+00 0.000000000000e+00-8.381903171539e-09 4.150000000000e+02
    1.728000000000e+05 4.000000000000e+00
 8 21  3 30  1 59 28.0-1.560384407640e-05-1.364242052659e-12 0.000000000000e+00
    9.100000000000e+01-1.104375000000e+02 4.430184534968e-09-9.088283931277e-01
   -5.917623639107e-06 6.321177817881e-03 9.125098586082e-06 5.153574333191e+03
    1.799680000000e+05 5.587935447693e-08 2.774824840833e+00-4.097819328308e-08
    9.679959305160e-01 2.026250000000e+02 1.589125923759e-02-8.136767500455e-09
   -3.550147877909e-10 1.000000000000e+00 2.151000000000e+03 0.000000000000e+00
    2.400000000000e+00 0.000000000000e+00 5.122274160385e-09 9.100000000000e+01
    1.728300000000e+05 4.000000000000e+00
